BEIDOU-2 IGSO-1 (C06)   
1 36828U 10036A   25348.90163916 -.00000024  00000+0  00000+0 0  9999
2 36828  54.2866 164.6279 0051256 215.8888 135.7931  1.00275796 56247
BEIDOU-2 G4 (C04)       
1 37210U 10057A   25350.30292631 -.00000090  00000+0  00000+0 0  9995
2 37210   3.1934  69.9263 0010570 192.0212  92.3789  1.00271918 55456
BEIDOU-2 IGSO-2 (C07)   
1 37256U 10068A   25349.73914131 -.00000220  00000+0  00000+0 0  9993
2 37256  47.8802 274.1114 0048611 216.5623 327.8020  1.00285693 54958
BEIDOU-2 IGSO-3 (C08)   
1 37384U 11013A   25349.63100918 -.00000190  00000+0  00000+0 0  9991
2 37384  62.1477  41.8879 0035406 187.6383 189.6615  1.00270237 53821
BEIDOU-2 IGSO-4 (C09)   
1 37763U 11038A   25349.32645973  .00000068  00000+0  00000+0 0  9993
2 37763  54.5835 167.3229 0149305 230.2220 258.6911  1.00281785 52800
BEIDOU-2 IGSO-5 (C10)   
1 37948U 11073A   25346.76721769 -.00000221  00000+0  00000+0 0  9992
2 37948  48.0199 273.8570 0110175 222.3080 314.7254  1.00291151 51268
BEIDOU-2 G5 (C05)       
1 38091U 12008A   25350.63953580  .00000078  00000+0  00000+0 0  9999
2 38091   3.1186  70.7002 0013027 231.2097  72.6715  1.00267602 50530
BEIDOU-2 M3 (C11)       
1 38250U 12018A   25347.93810025 -.00000096  00000+0  00000+0 0  9993
2 38250  55.9188 311.1166 0024290 274.3199  85.3911  1.86229879 92490
BEIDOU-2 M4 (C12)       
1 38251U 12018B   25347.33319933 -.00000095  00000+0  00000+0 0  9999
2 38251  55.8208 310.3658 0015452 277.4494  82.3644  1.86229462 92489
BEIDOU-2 M6 (C14)       
1 38775U 12050B   25350.26582933 -.00000080  00000+0  00000+0 0  9998
2 38775  56.3814  68.9504 0011318 343.5807  16.4038  1.86230757 89902
BEIDOU-2 G6 (C02)       
1 38953U 12059A   25349.85983303 -.00000155  00000+0  00000+0 0  9997
2 38953   3.9573  75.4759 0008007 290.8885 111.9220  1.00269594 48070
BEIDOU-3S IGSO-1S (C31) 
1 40549U 15019A   25346.85114098 -.00000194  00000+0  00000+0 0  9997
2 40549  49.5511 297.7097 0036523 193.9643 350.5618  1.00293020 39203
BEIDOU-3S M2S (C58)     
1 40748U 15037A   25345.92738932 -.00000089  00000+0  00000+0 0  9997
2 40748  55.0397 308.4912 0012344 267.8245  92.0250  1.86228970 70636
BEIDOU-3S M1S (C57)     
1 40749U 15037B   25345.62076389 -.00000088  00000+0  00000+0 0  9995
2 40749  55.0364 308.4915 0003440 358.1692   1.8205  1.86253918 70639
BEIDOU-3S IGSO-2S (C56) 
1 40938U 15053A   25349.71962855 -.00000143  00000+0  00000+0 0  9991
2 40938  49.5060 260.9696 0060679 188.8642 349.8190  1.00269697 37513
BEIDOU-2 IGSO-6 (C13)   
1 41434U 16021A   25345.64528490 -.00000162  00000+0  00000+0 0  9991
2 41434  59.9644  39.9082 0060861 229.9753 135.9177  1.00293077 35600
BEIDOU-2 G7 (C03)       
1 41586U 16037A   25350.29304625 -.00000331  00000+0  00000+0 0  9993
2 41586   1.7657  67.8082 0004991   3.5750 229.7404  1.00273570  5059
BEIDOU-3 M1 (C19)       
1 43001U 17069A   25348.95739897 -.00000083  00000+0  00000+0 0  9990
2 43001  56.5292  69.1601 0009377 302.6991  57.2290  1.86231328 55175
BEIDOU-3 M2 (C20)       
1 43002U 17069B   25346.74795363 -.00000074  00000+0  00000+0 0  9996
2 43002  56.5266  69.2696 0006366 331.4530  28.5312  1.86230645 55128
BEIDOU-3 M7 (C27)       
1 43107U 18003A   25347.56488127 -.00000098  00000+0  00000+0 0  9995
2 43107  54.4958 308.7854 0002656  70.3198 289.6984  1.86232202 53891
BEIDOU-3 M8 (C28)       
1 43108U 18003B   25349.65759667 -.00000099  00000+0  00000+0 0  9999
2 43108  54.4868 308.6954 0004715 275.6738  84.2592  1.86230781 53940
BEIDOU-3 M4 (C22)       
1 43207U 18018A   25347.41478328 -.00000078  00000+0  00000+0 0  9996
2 43207  56.4868  69.2813 0004126   7.8207 352.2039  1.86231174 53286
BEIDOU-3 M3 (C21)       
1 43208U 18018B   25344.79653435 -.00000057  00000+0  00000+0 0  9996
2 43208  56.4840  69.3721 0006564 317.0111  42.9593  1.86231240 53231
BEIDOU-3 M9 (C29)       
1 43245U 18029A   25349.30836913 -.00000099  00000+0  00000+0 0  9991
2 43245  54.3630 306.3776 0001537 283.4598  76.5102  1.86228295 52470
BEIDOU-3 M10 (C30)      
1 43246U 18029B   25349.24361355 -.00000099  00000+0  00000+0 0  9998
2 43246  54.3606 306.4069 0004110   1.1805 358.8077  1.86228929 52455
BEIDOU-2 IGSO-7 (C16)   
1 43539U 18057A   25349.32438797 -.00000023  00000+0  00000+0 0  9995
2 43539  55.1766 164.6485 0092621 235.2644 271.8458  1.00256546 27289
BEIDOU-3 M5 (C23)       
1 43581U 18062A   25346.24654638  .00000079  00000+0  00000+0 0  9990
2 43581  54.0891 188.6597 0002101 354.1416   5.9159  1.86228672 50154
BEIDOU-3 M6 (C24)       
1 43582U 18062B   25349.86830598  .00000114  00000+0  00000+0 0  9993
2 43582  54.0887 188.5256 0007821  46.8936 313.2408  1.86229812 50224
BEIDOU-3 M12 (C26)      
1 43602U 18067A   25349.80616963  .00000115  00000+0  00000+0 0  9994
2 43602  54.1832 187.2590 0009193  40.8045 319.3313  1.86227726 49709
BEIDOU-3 M11 (C25)      
1 43603U 18067B   25349.94068628  .00000115  00000+0  00000+0 0  9999
2 43603  54.1803 187.2185 0005582  36.5610 323.5440  1.86227255 49734
BEIDOU-3 M13 (C32)      
1 43622U 18072A   25346.67541856 -.00000074  00000+0  00000+0 0  9997
2 43622  56.4592  68.8222 0005872 298.9421  61.0187  1.86230720 49189
BEIDOU-3 M14 (C33)      
1 43623U 18072B   25348.68869934 -.00000083  00000+0  00000+0 0  9991
2 43623  56.4633  68.7492 0003300 334.4118  25.5906  1.86230968 49219
BEIDOU-3 M16 (C35)      
1 43647U 18078A   25347.23565718 -.00000097  00000+0  00000+0 0  9991
2 43647  54.2615 306.5038 0007205  19.3609 340.6562  1.86232340 48698
BEIDOU-3 M15 (C34)      
1 43648U 18078B   25348.43877750 -.00000100  00000+0  00000+0 0  9992
2 43648  54.2560 306.4619 0003744  18.2942 341.7074  1.86231962 48738
BEIDOU-3 G1 (C59)       
1 43683U 18085A   25350.29893962 -.00000255  00000+0  00000+0 0  9990
2 43683   2.6166 102.8634 0001637  52.2072 177.7939  1.00269856 26228
BEIDOU-3 M17 (C36)      
1 43706U 18093A   25349.33107084  .00000113  00000+0  00000+0 0  9993
2 43706  54.1729 188.5337 0006137 307.6759 184.2500  1.86228523 48110
BEIDOU-3 M18 (C37)      
1 43707U 18093B   25348.99585863  .00000111  00000+0  00000+0 0  9998
2 43707  54.1734 188.5369 0006312 353.2198   6.8394  1.86226745 48104
BEIDOU-3 IGSO-1 (C38)   
1 44204U 19023A   25323.59378135 -.00000226  00000+0  00000+0 0  9994
2 44204  58.4003  39.8168 0026966 221.2202 126.9723  1.00252177  5102
BEIDOU-2 G8 (C01)       
1 44231U 19027A   25350.29980630 -.00000226  00000+0  00000+0 0  9994
2 44231   1.6709  74.7203 0008754 258.1532   4.6946  1.00267258 24244
BEIDOU-3 IGSO-2 (C39)   
1 44337U 19035A   25349.86719976 -.00000035  00000+0  00000+0 0  9992
2 44337  55.2266 160.4736 0037344 202.4670 153.4937  1.00270480 23827
BEIDOU-3 M24 (C46)      
1 44542U 19061A   25349.60383495  .00000114  00000+0  00000+0 0  9991
2 44542  54.4001 188.9192 0009593  24.7300 335.3854  1.86229360 42379
BEIDOU-3 M23 (C45)      
1 44543U 19061B   25350.27337280  .00000115  00000+0  00000+0 0  9999
2 44543  54.3990 188.8650 0006105  24.5789 337.1686  1.86227705 42395
BEIDOU-3 IGSO-3 (C40)   
1 44709U 19073A   25324.29956875 -.00000206  00000+0  00000+0 0  9998
2 44709  55.1630 283.1590 0044538 191.5856 168.2409  1.00250097 22360
BEIDOU-3 M22 (C44)      
1 44793U 19078A   25349.98079853 -.00000097  00000+0  00000+0 0  9999
2 44793  54.1051 306.2718 0005807  23.5551 336.4582  1.86231869 41238
BEIDOU-3 M21 (C43)      
1 44794U 19078B   25349.58158639 -.00000099  00000+0  00000+0 0  9998
2 44794  54.0788 306.2509 0003999  11.1298 348.8661  1.86227547 41237
BEIDOU-3 M19 (C41)      
1 44864U 19090A   25344.99143123 -.00000060  00000+0  00000+0 0  9990
2 44864  56.3920  69.0187 0017877 285.2046  73.1126  1.86231263 40726
BEIDOU-3 M20 (C42)      
1 44865U 19090B   25344.85839708 -.00000058  00000+0  00000+0 0  9994
2 44865  56.3937  69.0576 0014897 298.0030  60.7372  1.86231317 40704
BEIDOU-3 G2 (C60)       
1 45344U 20017A   25350.35839333 -.00000119  00000+0  00000+0 0  9992
2 45344   2.5040  43.9369 0004373 271.0939 339.2897  1.00273108 21427
BEIDOU-3 G3 (C61)       
1 45807U 20040A   25350.29304625 -.00000332  00000+0  00000+0 0  9993
2 45807   1.9998  66.6159 0006341 308.3775 286.2679  1.00272482 20235
BEIDOU-3 G4 (C62)       
1 56564U 23066A   25350.32267021 -.00000087  00000+0  00000+0 0  9995
2 56564   0.8071 302.3401 0002793 228.4152 190.6839  1.00271767  9569
BEIDOU-3 M28 (C50)      
1 58654U 23207A   25349.65978139 -.00000084  00000+0  00000+0 0  9994
2 58654  55.5870  68.5025 0002526 270.8998  89.0909  1.86229820 13427
BEIDOU-3 M26 (C48)      
1 58655U 23207B   25348.38349296 -.00000084  00000+0  00000+0 0  9990
2 58655  55.5879  68.5320 0003891 256.6064 103.3685  1.86231292 13389
BEIDOU-3 M25 (C47)      
1 61186U 24168B   25350.36229336 -.00000096  00000+0  00000+0 0  9996
2 61186  54.6387 308.5944 0005436 298.6165  64.9369  1.86230282  8383
BEIDOU-3 M27 (C49)      
1 61187U 24168C   25350.16279573 -.00000097  00000+0  00000+0 0  9994
2 61187  54.6343 308.5849 0002477 338.6924  26.0527  1.86230425  5853
